IRIDIUM 136             
1 42962U 17061H   23285.88960687  .00000550  00000+0  18933-3 0  9996
2 42962  86.3937  74.0878 0002147  85.7606 274.3835 14.34216524314610
